[
  {
    "OBJECT_NAME": "SOYUZ-MS 24",
    "OBJECT_ID": "2023-143A",
    "EPOCH": "2023-10-22T12:41:21.176448",
    "MEAN_MOTION": 15.4955053,
    "ECCENTRICITY": 5.9e-5,
    "INCLINATION": 51.6411,
    "RA_OF_ASC_NODE": 57.7775,
    "ARG_OF_PERICENTER": 100.4004,
    "MEAN_ANOMALY": 259.7051,
    "EPHEMERIS_TYPE": 0,
    "CLASSIFICATION_TYPE": "U",
    "NORAD_CAT_ID": 57862,
    "ELEMENT_SET_NO": 999,
    "REV_AT_EPOCH": 42153,
    "BSTAR": 0.00025884,
    "MEAN_MOTION_DOT": 0.00014113,
    "MEAN_MOTION_DDOT": 0
  }
]
