SOYUZ-MS 24             
1 57862U 23143A   23295.52871732  .00014113  00000+0  25884-3 0  9996
2 57862  51.6411  57.7775 0000590 100.4004 259.7051 15.49550530421530
